[{"OBJECT_NAME":"STARLINK-35080","OBJECT_ID":"2025-194D","EPOCH":"2026-03-09T13:55:53.539392","MEAN_MOTION":15.05654303,"ECCENTRICITY":0.0002831,"INCLINATION":97.6011,"RA_OF_ASC_NODE":284.3232,"ARG_OF_PERICENTER":96.7581,"MEAN_ANOMALY":263.3968,"EPHEMERIS_TYPE":0,"CLASSIFICATION_TYPE":"U","NORAD_CAT_ID":65437,"ELEMENT_SET_NO":999,"REV_AT_EPOCH":2963,"BSTAR":0.00046867,"MEAN_MOTION_DOT":6.709e-5,"MEAN_MOTION_DDOT":0},{"OBJECT_NAME":"RAPIDEYE 4","OBJECT_ID":"2008-040E","EPOCH":"2026-03-09T22:51:05.848992","MEAN_MOTION":15.03765217,"ECCENTRICITY":0.00096509,"INCLINATION":97.4015,"RA_OF_ASC_NODE":97.7474,"ARG_OF_PERICENTER":35.5595,"MEAN_ANOMALY":324.6273,"EPHEMERIS_TYPE":0,"CLASSIFICATION_TYPE":"U","NORAD_CAT_ID":33316,"ELEMENT_SET_NO":999,"REV_AT_EPOCH":95086,"BSTAR":0.00022327721,"MEAN_MOTION_DOT":3.01e-5,"MEAN_MOTION_DDOT":0}]
